start=new Date('2022-06-05T00:00:00.000Z').valueOf();
sats=[{"EPHEMERIS_TYPE":"0","MEAN_MOTION_DOT":"-0.00000033","TIME_SYSTEM":"UTC","NORAD_CAT_ID":"45237","REV_AT_EPOCH":"12831","ELEMENT_SET_NO":"999","PERIOD":"95.592","MEAN_MOTION_DDOT":"0.0000000000000","MEAN_MOTION":"15.06399414","OBJECT_NAME":"STARLINK-1270","COUNTRY_CODE":"US","FILE":"3481313","OBJECT_TYPE":"PAYLOAD","TLE_LINE2":"2 45237  53.0552  54.5418 0001960  57.7553 302.3625 15.06399414128316","RA_OF_ASC_NODE":"54.5418","SITE":"AFETR","RCS_SIZE":"LARGE","SEMIMAJOR_AXIS":"6925.350","CENTER_NAME":"EARTH","DECAY_DATE":null,"EPOCH":"2022-06-04T17:39:55.403424","TLE_LINE1":"1 45237U 20012BM  22155.73605791 -.00000033  00000-0  16715-4 0  9990","MEAN_ELEMENT_THEORY":"SGP4","ECCENTRICITY":"0.00019600","INCLINATION":"53.0552","ARG_OF_PERICENTER":"57.7553","LAUNCH_DATE":"2020-02-17","BSTAR":"0.00001671500000","PERIAPSIS":"545.858","OBJECT_ID":"2020-012BM","MEAN_ANOMALY":"302.3625","CLASSIFICATION_TYPE":"U","APOAPSIS":"548.573","REF_FRAME":"TEME","GP_ID":"205384064"},{"EPHEMERIS_TYPE":"0","MEAN_MOTION_DOT":"-0.00001033","TIME_SYSTEM":"UTC","NORAD_CAT_ID":"45360","REV_AT_EPOCH":"12299","ELEMENT_SET_NO":"999","PERIOD":"95.593","OBJECT_NAME":"STARLINK-1279","MEAN_MOTION_DDOT":"0.0000000000000","MEAN_MOTION":"15.06389362","COUNTRY_CODE":"US","FILE":"3480894","TLE_LINE2":"2 45360  53.0546 186.2153 0001513  60.2778 299.8361 15.06389362122993","OBJECT_TYPE":"PAYLOAD","RA_OF_ASC_NODE":"186.2153","SITE":"AFETR","RCS_SIZE":"LARGE","SEMIMAJOR_AXIS":"6925.381","CENTER_NAME":"EARTH","DECAY_DATE":null,"EPOCH":"2022-06-04T08:42:31.561056","TLE_LINE1":"1 45360U 20019A   22155.36286529 -.00001033  00000-0 -50486-4 0  9992","MEAN_ELEMENT_THEORY":"SGP4","ECCENTRICITY":"0.00015130","ARG_OF_PERICENTER":"60.2778","INCLINATION":"53.0546","LAUNCH_DATE":"2020-03-18","BSTAR":"-0.00005048600000","PERIAPSIS":"546.198","OBJECT_ID":"2020-019A","MEAN_ANOMALY":"299.8361","CLASSIFICATION_TYPE":"U","APOAPSIS":"548.294","REF_FRAME":"TEME","GP_ID":"205348127"},{"OBJECT_TYPE":"PAYLOAD","TLE_LINE2":"2 45361  53.0543 194.1837 0001658  67.3701 292.7463 15.06396646122934","COUNTRY_CODE":"US","FILE":"3481313","RA_OF_ASC_NODE":"194.1837","SITE":"AFETR","RCS_SIZE":"LARGE","MEAN_MOTION_DOT":"0.00001513","EPHEMERIS_TYPE":"0","NORAD_CAT_ID":"45361","TIME_SYSTEM":"UTC","ELEMENT_SET_NO":"999","REV_AT_EPOCH":"12293","PERIOD":"95.592","MEAN_MOTION_DDOT":"0.0000000000000","OBJECT_NAME":"STARLINK-1301","MEAN_MOTION":"15.06396646","OBJECT_ID":"2020-019B","APOAPSIS":"548.372","CLASSIFICATION_TYPE":"U","MEAN_ANOMALY":"292.7463","GP_ID":"205384077","REF_FRAME":"TEME","EPOCH":"2022-06-04T19:34:03.114048","DECAY_DATE":null,"CENTER_NAME":"EARTH","SEMIMAJOR_AXIS":"6925.359","TLE_LINE1":"1 45361U 20019B   22155.81531382  .00001513  00000-0  12043-3 0  9990","ARG_OF_PERICENTER":"67.3701","INCLINATION":"53.0543","ECCENTRICITY":"0.00016580","MEAN_ELEMENT_THEORY":"SGP4","PERIAPSIS":"546.076","BSTAR":"0.00012043000000","LAUNCH_DATE":"2020-03-18"},{"TLE_LINE1":"1 45362U 20019C   22155.86138986 -.00000680  00000-0 -26786-4 0  9995","CENTER_NAME":"EARTH","SEMIMAJOR_AXIS":"6925.367","EPOCH":"2022-06-04T20:40:24.083904","DECAY_DATE":null,"BSTAR":"-0.00002678600000","LAUNCH_DATE":"2020-03-18","PERIAPSIS":"546.163","MEAN_ELEMENT_THEORY":"SGP4","INCLINATION":"53.0548","ARG_OF_PERICENTER":"55.9364","ECCENTRICITY":"0.00015440","CLASSIFICATION_TYPE":"U","MEAN_ANOMALY":"304.1771","APOAPSIS":"548.302","OBJECT_ID":"2020-019C","REF_FRAME":"TEME","GP_ID":"205360607","TIME_SYSTEM":"UTC","NORAD_CAT_ID":"45362","MEAN_MOTION_DOT":"-0.00000680","EPHEMERIS_TYPE":"0","PERIOD":"95.593","OBJECT_NAME":"STARLINK-1306","MEAN_MOTION_DDOT":"0.0000000000000","MEAN_MOTION":"15.06393842","ELEMENT_SET_NO":"999","REV_AT_EPOCH":"12266","RA_OF_ASC_NODE":"213.9745","TLE_LINE2":"2 45362  53.0548 213.9745 0001544  55.9364 304.1771 15.06393842122665","OBJECT_TYPE":"PAYLOAD","FILE":"3481171","COUNTRY_CODE":"US","RCS_SIZE":"LARGE","SITE":"AFETR"},{"SEMIMAJOR_AXIS":"6925.349","CENTER_NAME":"EARTH","DECAY_DATE":null,"EPOCH":"2022-06-04T11:48:17.710560","TLE_LINE1":"1 45364U 20019E   22155.49187165 -.00001115  00000-0 -55945-4 0  9992","MEAN_ELEMENT_THEORY":"SGP4","ECCENTRICITY":"0.00015230","INCLINATION":"53.0541","ARG_OF_PERICENTER":"51.2357","LAUNCH_DATE":"2020-03-18","BSTAR":"-0.00005594500000","PERIAPSIS":"546.159","OBJECT_ID":"2020-019E","MEAN_ANOMALY":"308.8768","CLASSIFICATION_TYPE":"U","APOAPSIS":"548.269","REF_FRAME":"TEME","GP_ID":"205347877","EPHEMERIS_TYPE":"0","MEAN_MOTION_DOT":"-0.00001115","TIME_SYSTEM":"UTC","NORAD_CAT_ID":"45364","REV_AT_EPOCH":"12301","ELEMENT_SET_NO":"999","MEAN_MOTION":"15.06399873","PERIOD":"95.592","MEAN_MOTION_DDOT":"0.0000000000000","OBJECT_NAME":"STARLINK-1313","FILE":"3480894","COUNTRY_CODE":"US","TLE_LINE2":"2 45364  53.0541 185.6424 0001523  51.2357 308.8768 15.06399873123014","OBJECT_TYPE":"PAYLOAD","RA_OF_ASC_NODE":"185.6424","SITE":"AFETR","RCS_SIZE":"LARGE"},{"OBJECT_TYPE":"PAYLOAD","TLE_LINE2":"2 45365  52.9998 195.6459 0001426  70.1554 289.9588 15.05581890122838","COUNTRY_CODE":"US","FILE":"3480894","RA_OF_ASC_NODE":"195.6459","SITE":"AFETR","RCS_SIZE":"LARGE","MEAN_MOTION_DOT":"-0.00000327","EPHEMERIS_TYPE":"0","NORAD_CAT_ID":"45365","TIME_SYSTEM":"UTC","ELEMENT_SET_NO":"999","REV_AT_EPOCH":"12283","PERIOD":"95.644","OBJECT_NAME":"STARLINK-1317","MEAN_MOTION_DDOT":"0.0000000000000","MEAN_MOTION":"15.05581890","OBJECT_ID":"2020-019F","APOAPSIS":"550.710","CLASSIFICATION_TYPE":"U","MEAN_ANOMALY":"289.9588","GP_ID":"205348628","REF_FRAME":"TEME","EPOCH":"2022-06-04T11:48:50.313600","DECAY_DATE":null,"CENTER_NAME":"EARTH","SEMIMAJOR_AXIS":"6927.857","TLE_LINE1":"1 45365U 20019F   22155.49224900 -.00000327  00000-0 -33018-5 0  9994","INCLINATION":"52.9998","ARG_OF_PERICENTER":"70.1554","ECCENTRICITY":"0.00014260","MEAN_ELEMENT_THEORY":"SGP4","PERIAPSIS":"548.734","BSTAR":"-0.00000330180000","LAUNCH_DATE":"2020-03-18"},{"PERIAPSIS":"546.096","BSTAR":"-0.00000623500000","LAUNCH_DATE":"2020-03-18","INCLINATION":"53.0549","ARG_OF_PERICENTER":"64.3908","ECCENTRICITY":"0.00016230","MEAN_ELEMENT_THEORY":"SGP4","TLE_LINE1":"1 45366U 20019G   22155.44855460 -.00000374  00000-0 -62350-5 0  9994","EPOCH":"2022-06-04T10:45:55.117440","DECAY_DATE":null,"CENTER_NAME":"EARTH","SEMIMAJOR_AXIS":"6925.355","GP_ID":"205348879","REF_FRAME":"TEME","APOAPSIS":"548.344","CLASSIFICATION_TYPE":"U","MEAN_ANOMALY":"295.7248","OBJECT_ID":"2020-019G","PERIOD":"95.592","MEAN_MOTION_DDOT":"0.0000000000000","OBJECT_NAME":"STARLINK-1262","MEAN_MOTION":"15.06397921","ELEMENT_SET_NO":"999","REV_AT_EPOCH":"12260","NORAD_CAT_ID":"45366","TIME_SYSTEM":"UTC","MEAN_MOTION_DOT":"-0.00000374","EPHEMERIS_TYPE":"0","RCS_SIZE":"LARGE","SITE":"AFETR","RA_OF_ASC_NODE":"215.8189","TLE_LINE2":"2 45366  53.0549 215.8189 0001623  64.3908 295.7248 15.06397921122609","OBJECT_TYPE":"PAYLOAD","COUNTRY_CODE":"US","FILE":"3480894"},{"OBJECT_ID":"2020-019H","APOAPSIS":"548.317","MEAN_ANOMALY":"293.9663","CLASSIFICATION_TYPE":"U","GP_ID":"205384325","REF_FRAME":"TEME","DECAY_DATE":null,"EPOCH":"2022-06-04T20:51:00.654912","SEMIMAJOR_AXIS":"6925.354","CENTER_NAME":"EARTH","TLE_LINE1":"1 45367U 20019H   22155.86875758 -.00000345  00000-0 -42486-5 0  9999","ECCENTRICITY":"0.00015860","ARG_OF_PERICENTER":"66.1492","INCLINATION":"53.0535","MEAN_ELEMENT_THEORY":"SGP4","PERIAPSIS":"546.121","LAUNCH_DATE":"2020-03-18","BSTAR":"-0.00000424860000","COUNTRY_CODE":"US","FILE":"3481313","OBJECT_TYPE":"PAYLOAD","TLE_LINE2":"2 45367  53.0535 213.9386 0001586  66.1492 293.9663 15.06398196122661","RA_OF_ASC_NODE":"213.9386","SITE":"AFETR","RCS_SIZE":"LARGE","EPHEMERIS_TYPE":"0","MEAN_MOTION_DOT":"-0.00000345","NORAD_CAT_ID":"45367","TIME_SYSTEM":"UTC","REV_AT_EPOCH":"12266","ELEMENT_SET_NO":"999","PERIOD":"95.592","OBJECT_NAME":"STARLINK-1273","MEAN_MOTION_DDOT":"0.0000000000000","MEAN_MOTION":"15.06398196"},{"EPHEMERIS_TYPE":"0","MEAN_MOTION_DOT":"-0.00002425","TIME_SYSTEM":"UTC","NORAD_CAT_ID":"45368","REV_AT_EPOCH":"12262","ELEMENT_SET_NO":"999","OBJECT_NAME":"STARLINK-1276","PERIOD":"95.592","MEAN_MOTION_DDOT":"0.0000000000000","MEAN_MOTION":"15.06407827","COUNTRY_CODE":"US","FILE":"3481313","TLE_LINE2":"2 45368  53.0564 215.2634 0001507  80.2229 279.8930 15.06407827122621","OBJECT_TYPE":"PAYLOAD","RA_OF_ASC_NODE":"215.2634","SITE":"AFETR","RCS_SIZE":"LARGE","SEMIMAJOR_AXIS":"6925.325","CENTER_NAME":"EARTH","DECAY_DATE":null,"EPOCH":"2022-06-04T13:46:23.212992","TLE_LINE1":"1 45368U 20019J   22155.57387978 -.00002425  00000-0 -14394-3 0  9996","MEAN_ELEMENT_THEORY":"SGP4","ECCENTRICITY":"0.00015070","ARG_OF_PERICENTER":"80.2229","INCLINATION":"53.0564","LAUNCH_DATE":"2020-03-18","BSTAR":"-0.00014394000000","PERIAPSIS":"546.146","OBJECT_ID":"2020-019J","MEAN_ANOMALY":"279.8930","CLASSIFICATION_TYPE":"U","APOAPSIS":"548.233","REF_FRAME":"TEME","GP_ID":"205383079"},{"ELEMENT_SET_NO":"999","REV_AT_EPOCH":"12262","MEAN_MOTION_DDOT":"0.0000000000000","PERIOD":"95.592","MEAN_MOTION":"15.06406573","OBJECT_NAME":"STARLINK-1277","MEAN_MOTION_DOT":"-0.00000136","EPHEMERIS_TYPE":"0","NORAD_CAT_ID":"45369","TIME_SYSTEM":"UTC","SITE":"AFETR","RCS_SIZE":"LARGE","TLE_LINE2":"2 45369  53.0534 215.2639 0001550  75.6804 284.4357 15.06406573122621","OBJECT_TYPE":"PAYLOAD","COUNTRY_CODE":"US","FILE":"3481313","RA_OF_ASC_NODE":"215.2639","INCLINATION":"53.0534","ARG_OF_PERICENTER":"75.6804","ECCENTRICITY":"0.00015500","MEAN_ELEMENT_THEORY":"SGP4","PERIAPSIS":"546.120","BSTAR":"0.00000975450000","LAUNCH_DATE":"2020-03-18","EPOCH":"2022-06-04T13:45:01.467360","DECAY_DATE":null,"CENTER_NAME":"EARTH","SEMIMAJOR_AXIS":"6925.328","TLE_LINE1":"1 45369U 20019K   22155.57293365 -.00000136  00000-0  97545-5 0  9990","GP_ID":"205382829","REF_FRAME":"TEME","OBJECT_ID":"2020-019K","APOAPSIS":"548.267","CLASSIFICATION_TYPE":"U","MEAN_ANOMALY":"284.4357"}];
